[Satellite]
VERSION=1.1
NAME=LILACSAT-2
NICKNAME=LILACSAT-2
TLE1=1 40908U 15049K   22342.58889238  .00003477  00000+0  17919-3 0  9994
TLE2=2 40908  97.5220 341.6347 0016029 128.2526  19.4671 15.16937401398870
STATUS=0
